[{"OBJECT_NAME":"STARLINK-3059","OBJECT_ID":"2021-082BD","EPOCH":"2026-03-09T22:26:33.514368","MEAN_MOTION":14.98326436,"ECCENTRICITY":0.00023522,"INCLINATION":69.9989,"RA_OF_ASC_NODE":293.8388,"ARG_OF_PERICENTER":266.3981,"MEAN_ANOMALY":93.6909,"EPHEMERIS_TYPE":0,"CLASSIFICATION_TYPE":"U","NORAD_CAT_ID":49181,"ELEMENT_SET_NO":999,"REV_AT_EPOCH":24720,"BSTAR":-0.00010428634,"MEAN_MOTION_DOT":-1.337e-5,"MEAN_MOTION_DDOT":0},{"OBJECT_NAME":"CZ-2D R\/B","OBJECT_ID":"2010-027B","EPOCH":"2026-03-09T19:01:31.304352","MEAN_MOTION":15.02332282,"ECCENTRICITY":0.00475082,"INCLINATION":97.9913,"RA_OF_ASC_NODE":95.0303,"ARG_OF_PERICENTER":252.3591,"MEAN_ANOMALY":107.2442,"EPHEMERIS_TYPE":0,"CLASSIFICATION_TYPE":"U","NORAD_CAT_ID":36597,"ELEMENT_SET_NO":999,"REV_AT_EPOCH":85595,"BSTAR":0.00022535675,"MEAN_MOTION_DOT":2.983e-5,"MEAN_MOTION_DDOT":0}]
